NORAD_CAT_ID,OBJECT_NAME,OBJECT_TYPE,EPOCH,MEAN_MOTION,ECCENTRICITY,INCLINATION,RA_OF_ASC_NODE,ARG_OF_PERICENTER,MEAN_ANOMALY,BSTAR,MEAN_MOTION_DOT,MEAN_MOTION_DDOT,TLE_LINE0,TLE_LINE1,TLE_LINE2,SEMIMAJOR_AXIS,PERIOD,APOGEE,PERIGEE,DECAYED
55650.0,STARLINK-5494,PAYLOAD,2023-08-27 09:49:03,14.98327292,0.000292,70.0015,357.398,258.3821,101.701,7.14e-05,7.59e-06,0.0,0 STARLINK-5494,1 55650U 23021Y   23239.40906499  .00000759  00000-0  71400-4 0  9996,2 55650  70.0015 357.3980 0002920 258.3821 101.7010 14.98327292 30193,6950.201,96.107,574.096,570.037,0.0
55650.0,STARLINK-5494,PAYLOAD,2023-08-27 17:49:43,14.98332965,0.0003115,70.0013,356.5568,262.9045,97.1759,9.544e-05,1.046e-05,0.0,0 STARLINK-5494,1 55650U 23021Y   23239.74286101  .00001046  00000-0  95440-4 0  9994,2 55650  70.0013 356.5568 0003115 262.9045  97.1759 14.98332965 29942,6950.184,96.107,574.214,569.884,0.0
55650.0,STARLINK-5494,PAYLOAD,2023-08-27 19:25:51,14.9833606,0.0003359,70.001,356.3884,268.3176,91.7599,8.2442e-05,8.91e-06,0.0,0 STARLINK-5494,1 55650U 23021Y   23239.80961914  .00000891  00000-0  82442-4 0  9998,2 55650  70.0010 356.3884 0003359 268.3176  91.7599 14.98336060 30251,6950.174,96.107,574.374,569.705,0.0
55650.0,STARLINK-5494,PAYLOAD,2023-08-28 08:14:56,14.98323507,0.0003544,70.001,355.0419,265.9922,94.0832,3.6262e-05,3.4e-06,0.0,0 STARLINK-5494,1 55650U 23021Y   23240.34370749  .00000340  00000-0  36262-4 0  9997,2 55650  70.0010 355.0419 0003544 265.9922  94.0832 14.98323507 30033,6950.213,96.107,574.541,569.615,0.0
55650.0,STARLINK-5494,PAYLOAD,2023-08-28 19:27:52,14.98336923,0.0003134,70.0012,353.864,273.0827,86.9973,8.1152e-05,8.76e-06,0.0,0 STARLINK-5494,1 55650U 23021Y   23240.81101907  .00000876  00000-0  81152-4 0  9999,2 55650  70.0012 353.8640 0003134 273.0827  86.9973 14.98336923 30409,6950.171,96.107,574.215,569.858,0.0
55650.0,STARLINK-5494,PAYLOAD,2023-08-29 09:53:05,14.98324496,0.0003347,70.0013,352.3492,274.3943,85.6834,5.2209e-05,5.3e-06,0.0,0 STARLINK-5494,1 55650U 23021Y   23241.41186557  .00000530  00000-0  52209-4 0  9998,2 55650  70.0013 352.3492 0003347 274.3943  85.6834 14.98324496 30198,6950.21,96.107,574.401,569.749,0.0
55650.0,STARLINK-5494,PAYLOAD,2023-08-29 17:53:45,14.98335259,0.0003405,70.001,351.5082,271.9101,88.1668,1.0222e-05,2.9e-07,0.0,0 STARLINK-5494,1 55650U 23021Y   23241.74565985  .00000029  00000-0  10222-4 0  9992,2 55650  70.0010 351.5082 0003405 271.9101  88.1668 14.98335259 30546,6950.177,96.107,574.408,569.675,0.0
55650.0,STARLINK-5494,PAYLOAD,2023-08-30 19:31:53,14.9833482,0.000317,70.0012,348.8148,271.0838,88.9958,6.0919e-05,6.34e-06,0.0,0 STARLINK-5494,1 55650U 23021Y   23242.81381801  .00000634  00000-0  60919-4 0  9994,2 55650  70.0012 348.8148 0003170 271.0838  88.9958 14.98334820 30708,6950.178,96.107,574.246,569.84,0.0
55650.0,STARLINK-5494,PAYLOAD,2023-08-31 00:20:18,14.98333676,0.0003339,70.0019,348.3098,273.627,86.4507,-0.00011054,-1.412e-05,0.0,0 STARLINK-5494,1 55650U 23021Y   23243.01410137 -.00001412  00000-0 -11054-3 0  9994,2 55650  70.0019 348.3098 0003339 273.6270  86.4507 14.98333676 30430,6950.182,96.107,574.367,569.726,0.0
55650.0,STARLINK-5494,PAYLOAD,2023-08-31 06:44:50,14.98325589,0.0003367,70.0013,347.6369,271.1052,88.9722,-2.1852e-05,-3.54e-06,0.0,0 STARLINK-5494,1 55650U 23021Y   23243.28114512 -.00000354  00000-0 -21852-4 0  9993,2 55650  70.0013 347.6369 0003367 271.1052  88.9722 14.98325589 30473,6950.207,96.107,574.412,569.731,0.0
55650.0,STARLINK-5494,PAYLOAD,2023-09-01 00:22:19,14.98339348,0.0003528,70.0019,345.7853,269.3731,90.7024,-0.00016876,-2.107e-05,0.0,0 STARLINK-5494,1 55650U 23021Y   23244.01549980 -.00002107  00000-0 -16876-3 0  9993,2 55650  70.0019 345.7853 0003528 269.3731  90.7024 14.98339348 30584,6950.164,96.106,574.481,569.577,0.0
55650.0,STARLINK-5494,PAYLOAD,2023-09-01 06:46:51,14.98327935,0.0003351,70.0012,345.1125,270.166,89.9115,-7.9042e-06,-1.87e-06,0.0,0 STARLINK-5494,1 55650U 23021Y   23244.28254399 -.00000187  00000-0 -79042-5 0  9991,2 55650  70.0012 345.1125 0003351 270.1660  89.9115 14.98327935 30623,6950.199,96.107,574.393,569.735,0.0
55650.0,STARLINK-5494,PAYLOAD,2023-09-01 13:11:23,14.98332814,0.0003176,70.001,344.4379,265.6565,94.4231,4.3395e-05,4.25e-06,0.0,0 STARLINK-5494,1 55650U 23021Y   23244.54957925  .00000425  00000-0  43395-4 0  9999,2 55650  70.0010 344.4379 0003176 265.6565  94.4231 14.98332814 30961,6950.184,96.107,574.257,569.842,0.0
55650.0,STARLINK-5494,PAYLOAD,2023-09-02 13:13:24,14.98331453,0.0003268,70.0016,341.912,267.4383,92.6402,4.569e-05,4.52e-06,0.0,0 STARLINK-5494,1 55650U 23021Y   23245.55097881  .00000452  00000-0  45690-4 0  9997,2 55650  70.0016 341.9120 0003268 267.4383  92.6402 14.98331453 31119,6950.188,96.107,574.325,569.782,0.0
55650.0,STARLINK-5494,PAYLOAD,2023-09-02 16:25:40,14.98333134,0.0003269,70.0019,341.5753,267.2894,92.7891,6.1369e-05,6.39e-06,0.0,0 STARLINK-5494,1 55650U 23021Y   23245.68449716  .00000639  00000-0  61369-4 0  9997,2 55650  70.0019 341.5753 0003269 267.2894  92.7891 14.98333134 30835,6950.183,96.107,574.32,569.776,0.0
55650.0,STARLINK-5494,PAYLOAD,2023-09-03 13:15:24,14.98346763,0.0003208,70.0013,339.3889,272.511,87.5682,-2.2263e-05,-3.59e-06,0.0,0 STARLINK-5494,1 55650U 23021Y   23246.55236797 -.00000359  00000-0 -22263-4 0  9998,2 55650  70.0013 339.3889 0003208 272.5110  87.5682 14.98346763 31267,6950.141,96.106,574.236,569.776,0.0
55650.0,STARLINK-5494,PAYLOAD,2023-09-04 05:16:46,14.9832761,0.0003162,70.0006,337.7068,272.5139,87.5658,-4.5553e-05,-6.36e-06,0.0,0 STARLINK-5494,1 55650U 23021Y   23247.21997981 -.00000636  00000-0 -45553-4 0  9996,2 55650  70.0006 337.7068 0003162 272.5139  87.5658 14.98327610 31061,6950.2,96.107,574.263,569.868,0.0
55650.0,STARLINK-5494,PAYLOAD,2023-09-04 06:52:54,14.98326142,0.0003485,69.9997,337.5365,274.9425,85.1336,-8.1276e-05,-1.063e-05,0.0,0 STARLINK-5494,1 55650U 23021Y   23247.28674219 -.00001063  00000-0 -81276-4 0  9996,2 55650  69.9997 337.5365 0003485 274.9425  85.1336 14.98326142 31377,6950.205,96.107,574.492,569.648,0.0
55650.0,STARLINK-5494,PAYLOAD,2023-09-04 16:29:43,14.9832546,0.0003829,70.0,336.5272,268.8793,91.1928,-0.00015967,-1.998e-05,0.0,0 STARLINK-5494,1 55650U 23021Y   23247.68730464 -.00001998  00000-0 -15967-3 0  9995,2 55650  70.0000 336.5272 0003829 268.8793  91.1928 14.98325460 31133,6950.207,96.107,574.733,569.411,0.0
55650.0,STARLINK-5494,PAYLOAD,2023-09-05 05:18:47,14.98327858,0.0003398,70.001,335.181,269.6529,90.4241,-9.6181e-05,-1.24e-05,0.0,0 STARLINK-5494,1 55650U 23021Y   23248.22138381 -.00001240  00000-0 -96181-4 0  9994,2 55650  70.0010 335.1810 0003398 269.6529  90.4241 14.98327858 31519,6950.2,96.107,574.426,569.703,0.0
55650.0,STARLINK-5494,PAYLOAD,2023-09-05 22:56:15,14.98341939,0.0002739,70.0034,333.3297,268.5971,91.4874,-0.0002084,-2.579e-05,0.0,0 STARLINK-5494,1 55650U 23021Y   23248.95573638 -.00002579  00000-0 -20840-3 0  9996,2 55650  70.0034 333.3297 0002739 268.5971  91.4874 14.98341939 31329,6950.156,96.106,573.925,570.117,0.0
55650.0,STARLINK-5494,PAYLOAD,2023-09-06 05:20:48,14.98327964,0.0003245,70.0005,332.6568,266.2235,93.8553,0.00010119,1.115e-05,0.0,0 STARLINK-5494,1 55650U 23021Y   23249.22277863  .00001115  00000-0  10119-3 0  9999,2 55650  70.0005 332.6568 0003245 266.2235  93.8553 14.98327964 31367,6950.199,96.107,574.32,569.809,0.0
55650.0,STARLINK-5494,PAYLOAD,2023-09-06 18:09:52,14.98327487,0.0003111,70.0017,331.3093,268.8148,91.2654,0.00021377,2.458e-05,0.0,0 STARLINK-5494,1 55650U 23021Y   23249.75685679  .00002458  00000-0  21377-3 0  9994,2 55650  70.0017 331.3093 0003111 268.8148  91.2654 14.98327487 31748,6950.201,96.107,574.228,569.903,0.0
55650.0,STARLINK-5494,PAYLOAD,2023-09-07 08:35:05,14.98329407,0.0003228,70.0015,329.7951,270.3923,89.6866,-1.2018e-05,-2.36e-06,0.0,0 STARLINK-5494,1 55650U 23021Y   23250.35770154 -.00000236  00000-0 -12018-4 0  9992,2 55650  70.0015 329.7951 0003228 270.3923  89.6866 14.98329407 31535,6950.195,96.107,574.303,569.816,0.0
55650.0,STARLINK-5494,PAYLOAD,2023-09-07 16:35:45,14.98331349,0.0003279,70.0011,328.9541,269.5096,90.5687,4.4738e-06,-4e-07,0.0,0 STARLINK-5494,1 55650U 23021Y   23250.69149921 -.00000040  00000-0  44738-5 0  9998,2 55650  70.0011 328.9541 0003279 269.5096  90.5687 14.98331349 31882,6950.189,96.107,574.333,569.775,0.0
55650.0,STARLINK-5494,PAYLOAD,2023-09-08 10:13:14,14.9832975,0.0003263,70.0008,327.1018,270.6083,89.4702,-7.4542e-05,-9.82e-06,0.0,0 STARLINK-5494,1 55650U 23021Y   23251.42586205 -.00000982  00000-0 -74542-4 0  9991,2 55650  70.0008 327.1018 0003263 270.6083  89.4702 14.98329750 31697,6950.194,96.107,574.327,569.791,0.0
55650.0,STARLINK-5494,PAYLOAD,2023-09-08 13:25:30,14.98332365,0.000348,70.0012,326.7658,270.5591,89.517,-9.3201e-05,-1.205e-05,0.0,0 STARLINK-5494,1 55650U 23021Y   23251.55938048 -.00001205  00000-0 -93201-4 0  9993,2 55650  70.0012 326.7658 0003480 270.5591  89.5170 14.98332365 32014,6950.186,96.107,574.469,569.632,0.0
55650.0,STARLINK-5494,PAYLOAD,2023-09-08 16:37:46,14.98335425,0.0003529,70.001,326.4291,270.0719,90.0036,-5.6078e-05,-7.62e-06,0.0,0 STARLINK-5494,1 55650U 23021Y   23251.69289715 -.00000762  00000-0 -56078-4 0  9996,2 55650  70.0010 326.4291 0003529 270.0719  90.0036 14.98335425 32033,6950.176,96.107,574.494,569.588,0.0
55650.0,STARLINK-5494,PAYLOAD,2023-09-09 10:15:15,14.98327769,0.000345,70.0011,324.5778,271.3458,88.7306,5.4897e-05,5.62e-06,0.0,0 STARLINK-5494,1 55650U 23021Y   23252.42725864  .00000562  00000-0  54897-4 0  9991,2 55650  70.0011 324.5778 0003450 271.3458  88.7306 14.98327769 31844,6950.2,96.107,574.463,569.667,0.0
55650.0,STARLINK-5494,PAYLOAD,2023-09-09 13:27:31,14.98331056,0.0003243,70.0009,324.2406,266.0063,94.0725,7.0352e-05,7.47e-06,0.0,0 STARLINK-5494,1 55650U 23021Y   23252.56077592  .00000747  00000-0  70352-4 0  9993,2 55650  70.0009 324.2406 0003243 266.0063  94.0725 14.98331056 32164,6950.19,96.107,574.309,569.801,0.0
